{
  "type": "FeatureCollection",
  "features": [
    {
      "type": "Feature",
      "properties": {
        "norad_id": 30630,
        "name": "FENGYUN 1C DEB",
        "group": "fengyun-1c-debris",
        "lat": -68.88815319895642,
        "lon": -160.84429968254963,
        "alt_km": 829.4110013413056,
        "timestamp": "2025-12-26T19:22:39.184450+00:00",
        "meta_object_name": "FENGYUN 1C DEB",
        "meta_object_id": "1999-025ANM",
        "meta_epoch": "2025-12-26T11:22:27.158880",
        "meta_mean_motion": 14.22425752,
        "meta_eccentricity": 0.00256826,
        "meta_inclination": 99.1734,
        "meta_ra_of_asc_node": 174.0679,
        "meta_arg_of_pericenter": 36.0175,
        "meta_mean_anomaly": 346.7289,
        "meta_ephemeris_type": 0,
        "meta_classification_type": "U",
        "meta_norad_cat_id": 30630,
        "meta_element_set_no": 999,
        "meta_rev_at_epoch": 97408,
        "meta_bstar": 0.0008272777,
        "meta_mean_motion_dot": 1.802e-05,
        "meta_mean_motion_ddot": 0,
        "tle_line1": "1 30630U 99025ANM 25360.47392545  .00001802  00000+0  82728-3 0  9992",
        "tle_line2": "2 30630  99.1734 174.0679 0025682  36.0175 346.7289 14.22425752974087"
      },
      "geometry": {
        "type": "Point",
        "coordinates": [
          -160.84429968254963,
          -68.88815319895642
        ]
      }
    },
    {
      "type": "Feature",
      "properties": {
        "norad_id": 30632,
        "name": "FENGYUN 1C DEB",
        "group": "fengyun-1c-debris",
        "lat": 12.024075307777577,
        "lon": 131.23196684024717,
        "alt_km": 688.1363231897985,
        "timestamp": "2025-12-26T19:22:39.184461+00:00",
        "meta_object_name": "FENGYUN 1C DEB",
        "meta_object_id": "1999-025ANP",
        "meta_epoch": "2025-12-26T06:30:09.967680",
        "meta_mean_motion": 14.63217884,
        "meta_eccentricity": 0.00136283,
        "meta_inclination": 98.8249,
        "meta_ra_of_asc_node": 132.5547,
        "meta_arg_of_pericenter": 129.3738,
        "meta_mean_anomaly": 298.8925,
        "meta_ephemeris_type": 0,
        "meta_classification_type": "U",
        "meta_norad_cat_id": 30632,
        "meta_element_set_no": 999,
        "meta_rev_at_epoch": 97889,
        "meta_bstar": 0.003690116,
        "meta_mean_motion_dot": 0.00019027,
        "meta_mean_motion_ddot": 0,
        "tle_line1": "1 30632U 99025ANP 25360.27094870  .00019027  00000+0  36901-2 0  9991",
        "tle_line2": "2 30632  98.8249 132.5547 0013628 129.3738 298.8925 14.63217884978894"
      },
      "geometry": {
        "type": "Point",
        "coordinates": [
          131.23196684024717,
          12.024075307777577
        ]
      }
    },
    {
      "type": "Feature",
      "properties": {
        "norad_id": 30633,
        "name": "FENGYUN 1C DEB",
        "group": "fengyun-1c-debris",
        "lat": 3.287204439359128,
        "lon": 45.287395464748066,
        "alt_km": 812.0331504310725,
        "timestamp": "2025-12-26T19:22:39.184471+00:00",
        "meta_object_name": "FENGYUN 1C DEB",
        "meta_object_id": "1999-025ANQ",
        "meta_epoch": "2025-12-26T13:41:36.320928",
        "meta_mean_motion": 14.04424162,
        "meta_eccentricity": 0.0130015,
        "meta_inclination": 98.4206,
        "meta_ra_of_asc_node": 224.5802,
        "meta_arg_of_pericenter": 220.8046,
        "meta_mean_anomaly": 200.0065,
        "meta_ephemeris_type": 0,
        "meta_classification_type": "U",
        "meta_norad_cat_id": 30633,
        "meta_element_set_no": 999,
        "meta_rev_at_epoch": 96086,
        "meta_bstar": 0.00097366071,
        "meta_mean_motion_dot": 1.633e-05,
        "meta_mean_motion_ddot": 0,
        "tle_line1": "1 30633U 99025ANQ 25360.57055927  .00001633  00000+0  97366-3 0  9992",
        "tle_line2": "2 30633  98.4206 224.5802 0130015 220.8046 200.0065 14.04424162960861"
      },
      "geometry": {
        "type": "Point",
        "coordinates": [
          45.287395464748066,
          3.287204439359128
        ]
      }
    },
    {
      "type": "Feature",
      "properties": {
        "norad_id": 30634,
        "name": "FENGYUN 1C DEB",
        "group": "fengyun-1c-debris",
        "lat": 78.96664709887656,
        "lon": -138.79627102077944,
        "alt_km": 783.2886531169897,
        "timestamp": "2025-12-26T19:22:39.184482+00:00",
        "meta_object_name": "FENGYUN 1C DEB",
        "meta_object_id": "1999-025ANR",
        "meta_epoch": "2025-12-26T11:00:38.414880",
        "meta_mean_motion": 14.09814556,
        "meta_eccentricity": 0.01213468,
        "meta_inclination": 99.2943,
        "meta_ra_of_asc_node": 343.7197,
        "meta_arg_of_pericenter": 58.5929,
        "meta_mean_anomaly": 68.1088,
        "meta_ephemeris_type": 0,
        "meta_classification_type": "U",
        "meta_norad_cat_id": 30634,
        "meta_element_set_no": 999,
        "meta_rev_at_epoch": 95810,
        "meta_bstar": 0.0022378826,
        "meta_mean_motion_dot": 4.168e-05,
        "meta_mean_motion_ddot": 0,
        "tle_line1": "1 30634U 99025ANR 25360.45877795  .00004168  00000+0  22379-2 0  9992",
        "tle_line2": "2 30634  99.2943 343.7197 0121346  58.5929  68.1088 14.09814556958100"
      },
      "geometry": {
        "type": "Point",
        "coordinates": [
          -138.79627102077944,
          78.96664709887656
        ]
      }
    },
    {
      "type": "Feature",
      "properties": {
        "norad_id": 30639,
        "name": "FENGYUN 1C DEB",
        "group": "fengyun-1c-debris",
        "lat": -7.928113406451491,
        "lon": -67.91107915902239,
        "alt_km": 757.0879297954543,
        "timestamp": "2025-12-26T19:22:39.184492+00:00",
        "meta_object_name": "FENGYUN 1C DEB",
        "meta_object_id": "1999-025ANW",
        "meta_epoch": "2025-12-26T06:45:46.865952",
        "meta_mean_motion": 14.32547331,
        "meta_eccentricity": 0.00687803,
        "meta_inclination": 99.0174,
        "meta_ra_of_asc_node": 112.8096,
        "meta_arg_of_pericenter": 242.2296,
        "meta_mean_anomaly": 117.1901,
        "meta_ephemeris_type": 0,
        "meta_classification_type": "U",
        "meta_norad_cat_id": 30639,
        "meta_element_set_no": 999,
        "meta_rev_at_epoch": 96913,
        "meta_bstar": 0.003273657,
        "meta_mean_motion_dot": 9.079e-05,
        "meta_mean_motion_ddot": 0,
        "tle_line1": "1 30639U 99025ANW 25360.28179243  .00009079  00000+0  32737-2 0  9996",
        "tle_line2": "2 30639  99.0174 112.8096 0068780 242.2296 117.1901 14.32547331969137"
      },
      "geometry": {
        "type": "Point",
        "coordinates": [
          -67.91107915902239,
          -7.928113406451491
        ]
      }
    },
    {
      "type": "Feature",
      "properties": {
        "norad_id": 30640,
        "name": "FENGYUN 1C DEB",
        "group": "fengyun-1c-debris",
        "lat": 33.07228896545478,
        "lon": -101.8228734854456,
        "alt_km": 836.1941297906405,
        "timestamp": "2025-12-26T19:22:39.184503+00:00",
        "meta_object_name": "FENGYUN 1C DEB",
        "meta_object_id": "1999-025ANX",
        "meta_epoch": "2025-12-26T10:49:55.651584",
        "meta_mean_motion": 14.1470148,
        "meta_eccentricity": 0.00798983,
        "meta_inclination": 99.0559,
        "meta_ra_of_asc_node": 71.8547,
        "meta_arg_of_pericenter": 61.9172,
        "meta_mean_anomaly": 71.1543,
        "meta_ephemeris_type": 0,
        "meta_classification_type": "U",
        "meta_norad_cat_id": 30640,
        "meta_element_set_no": 999,
        "meta_rev_at_epoch": 96639,
        "meta_bstar": 0.001358979,
        "meta_mean_motion_dot": 2.653e-05,
        "meta_mean_motion_ddot": 0,
        "tle_line1": "1 30640U 99025ANX 25360.45133856  .00002653  00000+0  13590-2 0  9994",
        "tle_line2": "2 30640  99.0559  71.8547 0079898  61.9172  71.1543 14.14701480966395"
      },
      "geometry": {
        "type": "Point",
        "coordinates": [
          -101.8228734854456,
          33.07228896545478
        ]
      }
    },
    {
      "type": "Feature",
      "properties": {
        "norad_id": 30641,
        "name": "FENGYUN 1C DEB",
        "group": "fengyun-1c-debris",
        "lat": 69.31024707456754,
        "lon": 141.39319142026383,
        "alt_km": 539.2876294250391,
        "timestamp": "2025-12-26T19:22:39.184513+00:00",
        "meta_object_name": "FENGYUN 1C DEB",
        "meta_object_id": "1999-025ANY",
        "meta_epoch": "2025-12-26T08:13:48.294912",
        "meta_mean_motion": 14.79075335,
        "meta_eccentricity": 0.0136384,
        "meta_inclination": 98.9437,
        "meta_ra_of_asc_node": 296.2321,
        "meta_arg_of_pericenter": 84.1404,
        "meta_mean_anomaly": 72.1417,
        "meta_ephemeris_type": 0,
        "meta_classification_type": "U",
        "meta_norad_cat_id": 30641,
        "meta_element_set_no": 999,
        "meta_rev_at_epoch": 733,
        "meta_bstar": 0.00060526679,
        "meta_mean_motion_dot": 5.173e-05,
        "meta_mean_motion_ddot": 0,
        "tle_line1": "1 30641U 99025ANY 25360.34292008  .00005173  00000+0  60527-3 0  9991",
        "tle_line2": "2 30641  98.9437 296.2321 0136384  84.1404  72.1417 14.79075335  7336"
      },
      "geometry": {
        "type": "Point",
        "coordinates": [
          141.39319142026383,
          69.31024707456754
        ]
      }
    }
  ]
}